0 BREEZE-M DEB (TANK)
1 35495U 09034C   13282.51034361  .00005139  00000-0  83203-3 0  1620
2 35495 049.6357 028.0966 5112204 346.2586 019.1954 05.43820581 84144
0 BREEZE-M DEB (TANK)
1 35495U 09034C   13283.44012778  .00004564  00000-0  74217-3 0  1638
2 35495 049.6360 027.3302 5112072 346.9060 039.4609 05.43828636 84197
0 BREEZE-M DEB (TANK)
1 35495U 09034C   13285.45147700  .00004466  00000-0  74101-3 0  1649
2 35495 049.6364 025.6713 5111736 348.3107 017.2694 05.43850588 84304
0 BREEZE-M DEB (TANK)
1 35495U 09034C   13287.47549392  .00005796  00000-0  97338-3 0  1651
2 35495 049.6368 024.0027 5111413 349.7246 020.0530 05.43875425 84410
0 BREEZE-M DEB (TANK)
1 35495U 09034C   13288.39179346  .00006610  00000-0  11105-2 0  1665
2 35495 049.6372 023.2474 5111237 350.3661 014.1064 05.43893960 84460
0 BREEZE-M DEB (TANK)
1 35495U 09034C   13289.49859663  .00005060  00000-0  86166-3 0  1673
2 35495 049.6376 022.3352 5111137 351.1320 021.2240 05.43905626 84524
0 BREEZE-M DEB (TANK)
1 35495U 09034C   13290.41514780  .00005429  00000-0  92139-3 0  1682
2 35495 049.6380 021.5798 5111033 351.7690 015.8798 05.43912026 84579
0 BREEZE-M DEB (TANK)
1 35495U 09034C   13292.43819765  .00005944  00000-0  99932-3 0  1698
2 35495 049.6383 019.9120 5110737 353.1810 017.2421 05.43937890 84689
0 BREEZE-M DEB (TANK)
1 35495U 09034C   13294.46178451  .00006159  00000-0  10278-2 0  1709
2 35495 049.6388 018.2436 5110425 354.5935 019.8317 05.43969659 84795
0 BREEZE-M DEB (TANK)
1 35495U 09034C   13295.37795814  .00005990  00000-0  99911-3 0  1713
2 35495 049.6391 017.4884 5110317 355.2307 013.9510 05.43978022 84848
